start=new Date('2022-07-11T00:00:00.000Z').valueOf();
sats=[{"ELEMENT_SET_NO":"999","CENTER_NAME":"EARTH","PERIOD":"96.211","SEMIMAJOR_AXIS":"6955.228","REF_FRAME":"TEME","LAUNCH_DATE":"2021-09-14","RCS_SIZE":"LARGE","OBJECT_ID":"2021-082H","OBJECT_TYPE":"PAYLOAD","TLE_LINE2":"2 49137  70.0000  47.2128 0003025 259.0317 101.0501 14.96703119 46092","REV_AT_EPOCH":"4609","FILE":"3511318","TIME_SYSTEM":"UTC","INCLINATION":"70.0000","COUNTRY_CODE":"US","MEAN_ELEMENT_THEORY":"SGP4","MEAN_ANOMALY":"101.0501","GP_ID":"207876466","OBJECT_NAME":"STARLINK-3055","MEAN_MOTION":"14.96703119","RA_OF_ASC_NODE":"47.2128","APOAPSIS":"579.197","MEAN_MOTION_DOT":"-0.00001676","ECCENTRICITY":"0.00030250","PERIAPSIS":"574.989","NORAD_CAT_ID":"49137","TLE_LINE1":"1 49137U 21082H   22191.89322213 -.00001676  00000-0 -13848-3 0  9991","DECAY_DATE":null,"SITE":"AFWTR","MEAN_MOTION_DDOT":"0.0000000000000","EPHEMERIS_TYPE":"0","ARG_OF_PERICENTER":"259.0317","BSTAR":"-0.00013848000000","CLASSIFICATION_TYPE":"U","EPOCH":"2022-07-10T21:26:14.392032"},{"BSTAR":"0.00004995400000","CLASSIFICATION_TYPE":"U","ARG_OF_PERICENTER":"255.5246","EPHEMERIS_TYPE":"0","EPOCH":"2022-07-10T17:00:42.854976","DECAY_DATE":null,"NORAD_CAT_ID":"49138","TLE_LINE1":"1 49138U 21082J   22191.70882934  .00000503  00000-0  49954-4 0  9997","MEAN_MOTION_DDOT":"0.0000000000000","SITE":"AFWTR","PERIAPSIS":"569.876","ECCENTRICITY":"0.00031130","APOAPSIS":"574.203","MEAN_MOTION_DOT":"0.00000503","MEAN_MOTION":"14.98335951","RA_OF_ASC_NODE":"67.9739","MEAN_ANOMALY":"104.5568","MEAN_ELEMENT_THEORY":"SGP4","OBJECT_NAME":"STARLINK-3058","GP_ID":"207875220","REV_AT_EPOCH":"4556","FILE":"3511318","TLE_LINE2":"2 49138  70.0008  67.9739 0003113 255.5246 104.5568 14.98335951 45567","TIME_SYSTEM":"UTC","INCLINATION":"70.0008","COUNTRY_CODE":"US","REF_FRAME":"TEME","ELEMENT_SET_NO":"999","CENTER_NAME":"EARTH","PERIOD":"96.107","SEMIMAJOR_AXIS":"6950.174","OBJECT_TYPE":"PAYLOAD","OBJECT_ID":"2021-082J","LAUNCH_DATE":"2021-09-14","RCS_SIZE":"LARGE"},{"MEAN_ELEMENT_THEORY":"SGP4","MEAN_ANOMALY":"90.0536","GP_ID":"207875470","OBJECT_NAME":"STARLINK-3057","RA_OF_ASC_NODE":"27.3889","MEAN_MOTION":"14.96711878","SEMIMAJOR_AXIS":"6955.201","PERIOD":"96.211","CENTER_NAME":"EARTH","ELEMENT_SET_NO":"999","REF_FRAME":"TEME","LAUNCH_DATE":"2021-09-14","RCS_SIZE":"LARGE","OBJECT_ID":"2021-082K","OBJECT_TYPE":"PAYLOAD","TLE_LINE2":"2 49139  69.9985  27.3889 0002987 270.0279  90.0536 14.96711878 46560","FILE":"3511318","REV_AT_EPOCH":"4656","COUNTRY_CODE":"US","INCLINATION":"69.9985","TIME_SYSTEM":"UTC","TLE_LINE1":"1 49139U 21082K   22191.71648866 -.00000396  00000-0 -26595-4 0  9991","NORAD_CAT_ID":"49139","DECAY_DATE":null,"SITE":"AFWTR","MEAN_MOTION_DDOT":"0.0000000000000","ARG_OF_PERICENTER":"270.0279","EPHEMERIS_TYPE":"0","CLASSIFICATION_TYPE":"U","BSTAR":"-0.00002659500000","EPOCH":"2022-07-10T17:11:44.620224","APOAPSIS":"579.144","MEAN_MOTION_DOT":"-0.00000396","ECCENTRICITY":"0.00029870","PERIAPSIS":"574.989"},{"NORAD_CAT_ID":"49140","TLE_LINE1":"1 49140U 21082L   22191.84041563 -.00003367  00000-0 -28625-3 0  9994","DECAY_DATE":null,"MEAN_MOTION_DDOT":"0.0000000000000","SITE":"AFWTR","EPHEMERIS_TYPE":"0","ARG_OF_PERICENTER":"272.6886","BSTAR":"-0.00028625000000","CLASSIFICATION_TYPE":"U","EPOCH":"2022-07-10T20:10:11.910432","APOAPSIS":"579.225","MEAN_MOTION_DOT":"-0.00003367","ECCENTRICITY":"0.00031560","PERIAPSIS":"574.835","MEAN_ELEMENT_THEORY":"SGP4","MEAN_ANOMALY":"87.3911","GP_ID":"207876222","OBJECT_NAME":"STARLINK-3118","MEAN_MOTION":"14.96723516","RA_OF_ASC_NODE":"27.0763","ELEMENT_SET_NO":"999","PERIOD":"96.210","CENTER_NAME":"EARTH","SEMIMAJOR_AXIS":"6955.165","REF_FRAME":"TEME","LAUNCH_DATE":"2021-09-14","RCS_SIZE":"LARGE","OBJECT_TYPE":"PAYLOAD","OBJECT_ID":"2021-082L","TLE_LINE2":"2 49140  69.9988  27.0763 0003156 272.6886  87.3911 14.96723516 46584","REV_AT_EPOCH":"4658","FILE":"3511318","TIME_SYSTEM":"UTC","COUNTRY_CODE":"US","INCLINATION":"69.9988"},{"RCS_SIZE":"LARGE","LAUNCH_DATE":"2021-09-14","OBJECT_TYPE":"PAYLOAD","OBJECT_ID":"2021-082M","SEMIMAJOR_AXIS":"6950.225","PERIOD":"96.108","CENTER_NAME":"EARTH","ELEMENT_SET_NO":"999","REF_FRAME":"TEME","COUNTRY_CODE":"US","INCLINATION":"69.9989","TIME_SYSTEM":"UTC","TLE_LINE2":"2 49141  69.9989  67.9785 0002925 256.1408 103.9426 14.98319506 46761","FILE":"3511318","REV_AT_EPOCH":"4676","GP_ID":"207876967","OBJECT_NAME":"STARLINK-3093","MEAN_ANOMALY":"103.9426","MEAN_ELEMENT_THEORY":"SGP4","RA_OF_ASC_NODE":"67.9785","MEAN_MOTION":"14.98319506","MEAN_MOTION_DOT":"-0.00001840","APOAPSIS":"574.123","ECCENTRICITY":"0.00029250","PERIAPSIS":"570.057","SITE":"AFWTR","MEAN_MOTION_DDOT":"0.0000000000000","TLE_LINE1":"1 49141U 21082M   22191.70408124 -.00001840  00000-0 -14647-3 0  9993","NORAD_CAT_ID":"49141","DECAY_DATE":null,"EPOCH":"2022-07-10T16:53:52.619136","ARG_OF_PERICENTER":"256.1408","EPHEMERIS_TYPE":"0","BSTAR":"-0.00014647000000","CLASSIFICATION_TYPE":"U"},{"MEAN_MOTION":"14.96708518","RA_OF_ASC_NODE":"27.1000","OBJECT_NAME":"STARLINK-3042","GP_ID":"207875721","MEAN_ELEMENT_THEORY":"SGP4","MEAN_ANOMALY":"95.9434","TIME_SYSTEM":"UTC","COUNTRY_CODE":"US","INCLINATION":"69.9995","REV_AT_EPOCH":"4658","FILE":"3511318","TLE_LINE2":"2 49142  69.9995  27.1000 0003136 264.1367  95.9434 14.96708518 46587","OBJECT_TYPE":"PAYLOAD","OBJECT_ID":"2021-082N","LAUNCH_DATE":"2021-09-14","RCS_SIZE":"LARGE","REF_FRAME":"TEME","ELEMENT_SET_NO":"999","SEMIMAJOR_AXIS":"6955.212","PERIOD":"96.211","CENTER_NAME":"EARTH","EPOCH":"2022-07-10T20:03:10.960992","BSTAR":"-0.00018417000000","CLASSIFICATION_TYPE":"U","EPHEMERIS_TYPE":"0","ARG_OF_PERICENTER":"264.1367","SITE":"AFWTR","MEAN_MOTION_DDOT":"0.0000000000000","DECAY_DATE":null,"NORAD_CAT_ID":"49142","TLE_LINE1":"1 49142U 21082N   22191.83554353 -.00002199  00000-0 -18417-3 0  9991","PERIAPSIS":"574.896","ECCENTRICITY":"0.00031360","MEAN_MOTION_DOT":"-0.00002199","APOAPSIS":"579.258"},{"MEAN_MOTION_DOT":"-0.00000403","APOAPSIS":"579.211","ECCENTRICITY":"0.00030320","PERIAPSIS":"574.993","MEAN_MOTION_DDOT":"0.0000000000000","SITE":"AFWTR","TLE_LINE1":"1 49143U 21082P   22191.88840628 -.00000403  00000-0 -27235-4 0  9995","NORAD_CAT_ID":"49143","DECAY_DATE":null,"EPOCH":"2022-07-10T21:19:18.302592","EPHEMERIS_TYPE":"0","ARG_OF_PERICENTER":"257.3559","BSTAR":"-0.00002723500000","CLASSIFICATION_TYPE":"U","RCS_SIZE":"LARGE","LAUNCH_DATE":"2021-09-14","OBJECT_ID":"2021-082P","OBJECT_TYPE":"PAYLOAD","SEMIMAJOR_AXIS":"6955.237","PERIOD":"96.212","CENTER_NAME":"EARTH","ELEMENT_SET_NO":"999","REF_FRAME":"TEME","INCLINATION":"69.9990","COUNTRY_CODE":"US","TIME_SYSTEM":"UTC","TLE_LINE2":"2 49143  69.9990  47.2239 0003032 257.3559 102.7261 14.96700392 47209","FILE":"3511318","REV_AT_EPOCH":"4720","GP_ID":"207875971","OBJECT_NAME":"STARLINK-3109","MEAN_ELEMENT_THEORY":"SGP4","MEAN_ANOMALY":"102.7261","RA_OF_ASC_NODE":"47.2239","MEAN_MOTION":"14.96700392"},{"COUNTRY_CODE":"US","INCLINATION":"69.9993","TIME_SYSTEM":"UTC","FILE":"3511318","REV_AT_EPOCH":"4558","TLE_LINE2":"2 49144  69.9993  67.6710 0003042 261.9131  98.1683 14.98321467 45580","OBJECT_ID":"2021-082Q","OBJECT_TYPE":"PAYLOAD","LAUNCH_DATE":"2021-09-14","RCS_SIZE":"LARGE","REF_FRAME":"TEME","SEMIMAJOR_AXIS":"6950.219","PERIOD":"96.108","CENTER_NAME":"EARTH","ELEMENT_SET_NO":"999","RA_OF_ASC_NODE":"67.6710","MEAN_MOTION":"14.98321467","OBJECT_NAME":"STARLINK-3100","GP_ID":"207876723","MEAN_ELEMENT_THEORY":"SGP4","MEAN_ANOMALY":"98.1683","PERIAPSIS":"569.970","ECCENTRICITY":"0.00030420","MEAN_MOTION_DOT":"-0.00001594","APOAPSIS":"574.199","EPOCH":"2022-07-10T19:59:16.538784","BSTAR":"-0.00012582000000","CLASSIFICATION_TYPE":"U","ARG_OF_PERICENTER":"261.9131","EPHEMERIS_TYPE":"0","MEAN_MOTION_DDOT":"0.0000000000000","SITE":"AFWTR","DECAY_DATE":null,"TLE_LINE1":"1 49144U 21082Q   22191.83283031 -.00001594  00000-0 -12582-3 0  9990","NORAD_CAT_ID":"49144"},{"RA_OF_ASC_NODE":"27.1426","MEAN_MOTION":"14.96702510","GP_ID":"207876467","OBJECT_NAME":"STARLINK-3119","MEAN_ELEMENT_THEORY":"SGP4","MEAN_ANOMALY":"100.8414","INCLINATION":"69.9967","COUNTRY_CODE":"US","TIME_SYSTEM":"UTC","TLE_LINE2":"2 49145  69.9967  27.1426 0003028 259.2403 100.8414 14.96702510 46576","FILE":"3511318","REV_AT_EPOCH":"4657","RCS_SIZE":"LARGE","LAUNCH_DATE":"2021-09-14","OBJECT_TYPE":"PAYLOAD","OBJECT_ID":"2021-082R","PERIOD":"96.212","CENTER_NAME":"EARTH","SEMIMAJOR_AXIS":"6955.230","ELEMENT_SET_NO":"999","REF_FRAME":"TEME","EPOCH":"2022-07-10T19:44:59.294400","EPHEMERIS_TYPE":"0","ARG_OF_PERICENTER":"259.2403","BSTAR":"-0.00033182000000","CLASSIFICATION_TYPE":"U","MEAN_MOTION_DDOT":"0.0000000000000","SITE":"AFWTR","TLE_LINE1":"1 49145U 21082R   22191.82290850 -.00003886  00000-0 -33182-3 0  9992","NORAD_CAT_ID":"49145","DECAY_DATE":null,"ECCENTRICITY":"0.00030280","PERIAPSIS":"574.989","MEAN_MOTION_DOT":"-0.00003886","APOAPSIS":"579.201"},{"MEAN_MOTION_DOT":"-0.00001903","APOAPSIS":"579.194","ECCENTRICITY":"0.00030530","PERIAPSIS":"574.947","MEAN_MOTION_DDOT":"0.0000000000000","SITE":"AFWTR","NORAD_CAT_ID":"49146","TLE_LINE1":"1 49146U 21082S   22191.88354164 -.00001903  00000-0 -15832-3 0  9998","DECAY_DATE":null,"EPOCH":"2022-07-10T21:12:17.997696","EPHEMERIS_TYPE":"0","ARG_OF_PERICENTER":"263.3744","BSTAR":"-0.00015832000000","CLASSIFICATION_TYPE":"U","RCS_SIZE":"LARGE","LAUNCH_DATE":"2021-09-14","OBJECT_ID":"2021-082S","OBJECT_TYPE":"PAYLOAD","ELEMENT_SET_NO":"999","CENTER_NAME":"EARTH","PERIOD":"96.211","SEMIMAJOR_AXIS":"6955.206","REF_FRAME":"TEME","TIME_SYSTEM":"UTC","INCLINATION":"70.0001","COUNTRY_CODE":"US","TLE_LINE2":"2 49146  70.0001  47.2368 0003053 263.3744  96.7066 14.96710476 47240","REV_AT_EPOCH":"4724","FILE":"3511318","GP_ID":"207875221","OBJECT_NAME":"STARLINK-3116","MEAN_ANOMALY":"96.7066","MEAN_ELEMENT_THEORY":"SGP4","MEAN_MOTION":"14.96710476","RA_OF_ASC_NODE":"47.2368"}];
